{"type": "FeatureCollection", "features": [ {"type": "Feature", "properties": {"norad_id": 43010, "name": "FENGYUN 3D", "group": "weather", "lat": 21.86508821910391, "lon": 150.31462856361983, "alt_km": 824.9984337416281, "timestamp": "2025-12-26T03:50:11.730135+00:00", "meta": {"OBJECT_NAME": "FENGYUN 3D", "OBJECT_ID": "2017-072A", "EPOCH": "2025-12-25T22:01:18.028992", "MEAN_MOTION": 14.19686378, "ECCENTRICITY": 0.0001578, "INCLINATION": 98.9915, "RA_OF_ASC_NODE": 326.4258, "ARG_OF_PERICENTER": 146.152, "MEAN_ANOMALY": 213.9756, "EPHEMERIS_TYPE": 0, "CLASSIFICATION_TYPE": "U", "NORAD_CAT_ID": 43010, "ELEMENT_SET_NO": 999, "REV_AT_EPOCH": 42040, "BSTAR": -8.2764e-05, "MEAN_MOTION_DOT": -2.21e-06, "MEAN_MOTION_DDOT": 0}, "tle": {"line1": "1 43010U 17072A   25359.91756978 -.00000221  00000+0 -82764-4 0  9998", "line2": "2 43010  98.9915 326.4258 0001578 146.1520 213.9756 14.19686378420407"}}, "geometry": {"type": "Point", "coordinates": [150.31462856361983, 21.86508821910391]}}, {"type": "Feature", "properties": {"norad_id": 43013, "name": "NOAA 20 (JPSS-1)", "group": "weather", "lat": -56.86800517951546, "lon": -50.02188425029243, "alt_km": 834.848395774562, "timestamp": "2025-12-26T03:50:11.730146+00:00", "meta": {"OBJECT_NAME": "NOAA 20 (JPSS-1)", "OBJECT_ID": "2017-073A", "EPOCH": "2025-12-25T19:39:02.687040", "MEAN_MOTION": 14.19529169, "ECCENTRICITY": 0.0002068, "INCLINATION": 98.7616, "RA_OF_ASC_NODE": 295.9734, "ARG_OF_PERICENTER": 68.5404, "MEAN_ANOMALY": 291.5993, "EPHEMERIS_TYPE": 0, "CLASSIFICATION_TYPE": "U", "NORAD_CAT_ID": 43013, "ELEMENT_SET_NO": 999, "REV_AT_EPOCH": 41987, "BSTAR": 6.5243e-05, "MEAN_MOTION_DOT": 9.3e-07, "MEAN_MOTION_DDOT": 0}, "tle": {"line1": "1 43013U 17073A   25359.81878110  .00000093  00000+0  65243-4 0  9992", "line2": "2 43013  98.7616 295.9734 0002068  68.5404 291.5993 14.19529169419876"}}, "geometry": {"type": "Point", "coordinates": [-50.02188425029243, -56.86800517951546]}}, {"type": "Feature", "properties": {"norad_id": 43226, "name": "GOES 17", "group": "weather", "lat": -0.20017048828204417, "lon": 62.97565358445228, "alt_km": 35796.717357899455, "timestamp": "2025-12-26T03:50:11.730159+00:00", "meta": {"OBJECT_NAME": "GOES 17", "OBJECT_ID": "2018-022A", "EPOCH": "2025-12-25T12:38:22.122816", "MEAN_MOTION": 1.00271863, "ECCENTRICITY": 0.0003138, "INCLINATION": 0.4887, "RA_OF_ASC_NODE": 89.0412, "ARG_OF_PERICENTER": 191.0543, "MEAN_ANOMALY": 274.2832, "EPHEMERIS_TYPE": 0, "CLASSIFICATION_TYPE": "U", "NORAD_CAT_ID": 43226, "ELEMENT_SET_NO": 999, "REV_AT_EPOCH": 2868, "BSTAR": 0, "MEAN_MOTION_DOT": -1.61e-06, "MEAN_MOTION_DDOT": 0}, "tle": {"line1": "1 43226U 18022A   25359.52664494 -.00000161  00000+0  00000+0 0  9991", "line2": "2 43226   0.4887  89.0412 0003138 191.0543 274.2832  1.00271863 28688"}}, "geometry": {"type": "Point", "coordinates": [62.97565358445228, -0.20017048828204417]}}, {"type": "Feature", "properties": {"norad_id": 43491, "name": "FENGYUN 2H", "group": "weather", "lat": 1.2572458501377728, "lon": -128.19709317036316, "alt_km": 35776.47615466137, "timestamp": "2025-12-26T03:50:11.730171+00:00", "meta": {"OBJECT_NAME": "FENGYUN 2H", "OBJECT_ID": "2018-050A", "EPOCH": "2025-12-25T19:20:18.558240", "MEAN_MOTION": 1.00270337, "ECCENTRICITY": 0.0002432, "INCLINATION": 2.5824, "RA_OF_ASC_NODE": 81.1909, "ARG_OF_PERICENTER": 166.7726, "MEAN_ANOMALY": 216.0076, "EPHEMERIS_TYPE": 0, "CLASSIFICATION_TYPE": "U", "NORAD_CAT_ID": 43491, "ELEMENT_SET_NO": 999, "REV_AT_EPOCH": 2770, "BSTAR": 0, "MEAN_MOTION_DOT": -1.09e-06, "MEAN_MOTION_DDOT": 0}, "tle": {"line1": "1 43491U 18050A   25359.80577035 -.00000109  00000+0  00000+0 0  9993", "line2": "2 43491   2.5824  81.1909 0002432 166.7726 216.0076  1.00270337 27709"}}, "geometry": {"type": "Point", "coordinates": [-128.19709317036316, 1.2572458501377728]}}, {"type": "Feature", "properties": {"norad_id": 43689, "name": "METOP-C", "group": "weather", "lat": 2.215610712813177, "lon": -121.9384285155917, "alt_km": 823.3600659486283, "timestamp": "2025-12-26T03:50:11.730183+00:00", "meta": {"OBJECT_NAME": "METOP-C", "OBJECT_ID": "2018-087A", "EPOCH": "2025-12-25T18:33:25.013088", "MEAN_MOTION": 14.21489247, "ECCENTRICITY": 6.01e-05, "INCLINATION": 98.6911, "RA_OF_ASC_NODE": 57.3419, "ARG_OF_PERICENTER": 14.4615, "MEAN_ANOMALY": 345.658, "EPHEMERIS_TYPE": 0, "CLASSIFICATION_TYPE": "U", "NORAD_CAT_ID": 43689, "ELEMENT_SET_NO": 999, "REV_AT_EPOCH": 37019, "BSTAR": 8.0397e-05, "MEAN_MOTION_DOT": 1.32e-06, "MEAN_MOTION_DDOT": 0}, "tle": {"line1": "1 43689U 18087A   25359.77320617  .00000132  00000+0  80397-4 0  9997", "line2": "2 43689  98.6911  57.3419 0000601  14.4615 345.6580 14.21489247370196"}}, "geometry": {"type": "Point", "coordinates": [-121.9384285155917, 2.215610712813177]}}, {"type": "Feature", "properties": {"norad_id": 43823, "name": "GEO-KOMPSAT-2A", "group": "weather", "lat": 0.011468280243747705, "lon": -79.3155889833461, "alt_km": 35788.02659453422, "timestamp": "2025-12-26T03:50:11.730204+00:00", "meta": {"OBJECT_NAME": "GEO-KOMPSAT-2A", "OBJECT_ID": "2018-100A", "EPOCH": "2025-12-25T12:13:38.614080", "MEAN_MOTION": 1.00268534, "ECCENTRICITY": 2.51e-05, "INCLINATION": 0.0434, "RA_OF_ASC_NODE": 172.7377, "ARG_OF_PERICENTER": 259.9479, "MEAN_ANOMALY": 333.2359, "EPHEMERIS_TYPE": 0, "CLASSIFICATION_TYPE": "U", "NORAD_CAT_ID": 43823, "ELEMENT_SET_NO": 999, "REV_AT_EPOCH": 2588, "BSTAR": 0, "MEAN_MOTION_DOT": -3.22e-06, "MEAN_MOTION_DDOT": 0}, "tle": {"line1": "1 43823U 18100A   25359.50947470 -.00000322  00000+0  00000+0 0  9996", "line2": "2 43823   0.0434 172.7377 0000251 259.9479 333.2359  1.00268534 25880"}}, "geometry": {"type": "Point", "coordinates": [-79.3155889833461, 0.011468280243747705]}}, {"type": "Feature", "properties": {"norad_id": 44387, "name": "METEOR-M2 2", "group": "weather", "lat": 26.932118313914124, "lon": -24.51203833435575, "alt_km": 809.8930667467012, "timestamp": "2025-12-26T03:50:11.730216+00:00", "meta": {"OBJECT_NAME": "METEOR-M2 2", "OBJECT_ID": "2019-038A", "EPOCH": "2025-12-25T20:57:53.633088", "MEAN_MOTION": 14.24296259, "ECCENTRICITY": 0.0001822, "INCLINATION": 98.8989, "RA_OF_ASC_NODE": 339.7635, "ARG_OF_PERICENTER": 124.1367, "MEAN_ANOMALY": 235.9984, "EPHEMERIS_TYPE": 0, "CLASSIFICATION_TYPE": "U", "NORAD_CAT_ID": 44387, "ELEMENT_SET_NO": 999, "REV_AT_EPOCH": 33662, "BSTAR": 3.5361e-05, "MEAN_MOTION_DOT": 3.6e-07, "MEAN_MOTION_DDOT": 0}, "tle": {"line1": "1 44387U 19038A   25359.87353742  .00000036  00000+0  35361-4 0  9990", "line2": "2 44387  98.8989 339.7635 0001822 124.1367 235.9984 14.24296259336626"}}, "geometry": {"type": "Point", "coordinates": [-24.51203833435575, 26.932118313914124]}}, {"type": "Feature", "properties": {"norad_id": 47719, "name": "ARKTIKA-M 1", "group": "weather", "lat": 57.26187124818596, "lon": 134.03705972127545, "alt_km": 33863.85769701246, "timestamp": "2025-12-26T03:50:11.730229+00:00", "meta": {"OBJECT_NAME": "ARKTIKA-M 1", "OBJECT_ID": "2021-016A", "EPOCH": "2025-12-25T00:52:45.922368", "MEAN_MOTION": 2.00630507, "ECCENTRICITY": 0.7210339, "INCLINATION": 63.177, "RA_OF_ASC_NODE": 82.3163, "ARG_OF_PERICENTER": 269.1694, "MEAN_ANOMALY": 15.5374, "EPHEMERIS_TYPE": 0, "CLASSIFICATION_TYPE": "U", "NORAD_CAT_ID": 47719, "ELEMENT_SET_NO": 999, "REV_AT_EPOCH": 3529, "BSTAR": 0, "MEAN_MOTION_DOT": -4.3e-07, "MEAN_MOTION_DDOT": 0}, "tle": {"line1": "1 47719U 21016A   25359.03664262 -.00000043  00000+0  00000+0 0  9997", "line2": "2 47719  63.1770  82.3163 7210339 269.1694  15.5374  2.00630507 35296"}}, "geometry": {"type": "Point", "coordinates": [134.03705972127545, 57.26187124818596]}}, {"type": "Feature", "properties": {"norad_id": 49008, "name": "FENGYUN 3E", "group": "weather", "lat": 45.66925683517388, "lon": -170.40997528607903, "alt_km": 821.3338119925975, "timestamp": "2025-12-26T03:50:11.730241+00:00", "meta": {"OBJECT_NAME": "FENGYUN 3E", "OBJECT_ID": "2021-062A", "EPOCH": "2025-12-25T20:26:40.953696", "MEAN_MOTION": 14.19881142, "ECCENTRICITY": 9.89e-05, "INCLINATION": 98.7479, "RA_OF_ASC_NODE": 0.2172, "ARG_OF_PERICENTER": 188.2106, "MEAN_ANOMALY": 171.9054, "EPHEMERIS_TYPE": 0, "CLASSIFICATION_TYPE": "U", "NORAD_CAT_ID": 49008, "ELEMENT_SET_NO": 999, "REV_AT_EPOCH": 23198, "BSTAR": 3.0757e-06, "MEAN_MOTION_DOT": -3.7e-07, "MEAN_MOTION_DDOT": 0}, "tle": {"line1": "1 49008U 21062A   25359.85186289 -.00000037  00000+0  30757-5 0  9990", "line2": "2 49008  98.7479   0.2172 0000989 188.2106 171.9054 14.19881142231980"}}, "geometry": {"type": "Point", "coordinates": [-170.40997528607903, 45.66925683517388]}}, {"type": "Feature", "properties": {"norad_id": 51850, "name": "GOES 18", "group": "weather", "lat": 7.218361077908041e-05, "lon": 15.451743337623029, "alt_km": 35785.239024824696, "timestamp": "2025-12-26T03:50:11.730261+00:00", "meta": {"OBJECT_NAME": "GOES 18", "OBJECT_ID": "2022-021A", "EPOCH": "2025-12-25T12:22:38.764416", "MEAN_MOTION": 1.00271349, "ECCENTRICITY": 4.36e-05, "INCLINATION": 0.0208, "RA_OF_ASC_NODE": 187.5014, "ARG_OF_PERICENTER": 127.4929, "MEAN_ANOMALY": 187.9384, "EPHEMERIS_TYPE": 0, "CLASSIFICATION_TYPE": "U", "NORAD_CAT_ID": 51850, "ELEMENT_SET_NO": 999, "REV_AT_EPOCH": 485, "BSTAR": 0, "MEAN_MOTION_DOT": 1.18e-06, "MEAN_MOTION_DDOT": 0}, "tle": {"line1": "1 51850U 22021A   25359.51572644  .00000118  00000+0  00000+0 0  9992", "line2": "2 51850   0.0208 187.5014 0000436 127.4929 187.9384  1.00271349  4858"}}, "geometry": {"type": "Point", "coordinates": [15.451743337623029, 7.218361077908041e-05]}}]}